STARLINK-1470           
1 45772U 20038AU  26073.77511221  .00028115  00000+0  10092-2 0  9992
2 45772  53.0448 150.7050 0002095  21.7365 338.3722 15.28490273317852
STARLINK-1482           
1 45773U 20038AV  26073.64483492  .00013020  00000+0  44866-3 0  9993
2 45773  53.1620 167.9987 0001492 112.9737 247.1421 15.30365351317608
STARLINK-1496           
1 45780U 20038BC  26073.93349919  .00084363  00000+0  15140-2 0  9998
2 45780  53.0509 152.7094 0002491 244.3400 115.7350 15.49202323317823
STARLINK-1513           
1 45786U 20038BJ  26073.98099497  .00001876  00000+0  75439-4 0  9999
2 45786  53.1627 166.5706 0001446  87.4185 272.6982 15.30199468317659
STARLINK-1522           
1 46027U 20055A   26074.24446450  .00018172  00000+0  11423-2 0  9990
2 46027  53.0625 101.4414 0001875  64.4262 295.6923 15.09303435309722
STARLINK-1523           
1 46028U 20055B   26074.33335648  .00938849  00000+0  34635-1 0  9998
2 46028  53.1335 100.3562 0001577  60.3866   3.1717 15.24705599  5795
STARLINK-1526           
1 46029U 20055C   26074.33335648  .00903301  00000+0  33393-1 0  9994
2 46029  53.1335 100.3195 0002010  78.5588  45.3237 15.24739725  5796
STARLINK-1555           
1 46032U 20055F   26074.33335648  .01021946  00000+0  37116-1 0  9992
2 46032  53.1349 100.4055 0002193  80.1516  75.8485 15.24994518  5845
STARLINK-1556           
1 46033U 20055G   26074.33335648  .00989629  00000+0  35109-1 0  9993
2 46033  53.1393 100.3050 0001297  79.5049 231.5241 15.25869086  5894
STARLINK-1557           
1 46034U 20055H   26074.33335648  .00946595  00000+0  33099-1 0  9995
2 46034  53.1414 100.2154 0001256  73.6561 266.6671 15.26474532  5741
STARLINK-1558           
1 46035U 20055J   26074.33335648  .01085047  00000+0  38470-1 0  9991
2 46035  53.1395 100.3972 0001360  99.6621 101.0650 15.26082250  5842
STARLINK-1560           
1 46036U 20055K   26074.33335648 -.00080371  00000+0 -28001-2 0  9998
2 46036  53.1571 100.2778 0001907  73.9503 272.2304 15.29387210  5791
STARLINK-1567           
1 46038U 20055M   26074.33335648  .01844734  00000+0  59652-1 0  9995
2 46038  53.0880 100.3993 0000818  83.1407 122.8881 15.28533561  5792
STARLINK-1569           
1 46039U 20055N   26074.33335648  .00981541  00000+0  36224-1 0  9993
2 46039  53.1329 100.4079 0002159  84.5357  89.9738 15.24571877  5845
STARLINK-1582           
1 46043U 20055S   26074.33335648  .01730213  00000+0  58184-1 0  9996
2 46043  53.1444 100.4564 0002121  88.0377  19.6832 15.26916944  5909
STARLINK-1591           
1 46045U 20055U   26074.33335648  .00070102  00000+0  28231-2 0  9992
2 46045  53.1295 100.3597 0000922  60.1503 320.7549 15.24243216  5846
