[{"OBJECT_NAME":"STARLINK-1470","OBJECT_ID":"2020-038AU","EPOCH":"2026-03-14T18:36:09.694944","MEAN_MOTION":15.28490273,"ECCENTRICITY":0.00020953,"INCLINATION":53.0448,"RA_OF_ASC_NODE":150.705,"ARG_OF_PERICENTER":21.7365,"MEAN_ANOMALY":338.3722,"EPHEMERIS_TYPE":0,"CLASSIFICATION_TYPE":"U","NORAD_CAT_ID":45772,"ELEMENT_SET_NO":999,"REV_AT_EPOCH":31785,"BSTAR":0.0010092063,"MEAN_MOTION_DOT":0.00028115,"MEAN_MOTION_DDOT":0},{"OBJECT_NAME":"STARLINK-1482","OBJECT_ID":"2020-038AV","EPOCH":"2026-03-14T15:28:33.737088","MEAN_MOTION":15.30365351,"ECCENTRICITY":0.00014923,"INCLINATION":53.162,"RA_OF_ASC_NODE":167.9987,"ARG_OF_PERICENTER":112.9737,"MEAN_ANOMALY":247.1421,"EPHEMERIS_TYPE":0,"CLASSIFICATION_TYPE":"U","NORAD_CAT_ID":45773,"ELEMENT_SET_NO":999,"REV_AT_EPOCH":31760,"BSTAR":0.00044865831,"MEAN_MOTION_DOT":0.0001302,"MEAN_MOTION_DDOT":0},{"OBJECT_NAME":"STARLINK-1496","OBJECT_ID":"2020-038BC","EPOCH":"2026-03-14T22:24:14.330016","MEAN_MOTION":15.49202323,"ECCENTRICITY":0.00024917,"INCLINATION":53.0509,"RA_OF_ASC_NODE":152.7094,"ARG_OF_PERICENTER":244.34,"MEAN_ANOMALY":115.735,"EPHEMERIS_TYPE":0,"CLASSIFICATION_TYPE":"U","NORAD_CAT_ID":45780,"ELEMENT_SET_NO":999,"REV_AT_EPOCH":31782,"BSTAR":0.0015140125,"MEAN_MOTION_DOT":0.00084363,"MEAN_MOTION_DDOT":0},{"OBJECT_NAME":"STARLINK-1513","OBJECT_ID":"2020-038BJ","EPOCH":"2026-03-14T23:32:37.965408","MEAN_MOTION":15.30199468,"ECCENTRICITY":0.00014466,"INCLINATION":53.1627,"RA_OF_ASC_NODE":166.5706,"ARG_OF_PERICENTER":87.4185,"MEAN_ANOMALY":272.6982,"EPHEMERIS_TYPE":0,"CLASSIFICATION_TYPE":"U","NORAD_CAT_ID":45786,"ELEMENT_SET_NO":999,"REV_AT_EPOCH":31765,"BSTAR":7.5439184e-5,"MEAN_MOTION_DOT":1.876e-5,"MEAN_MOTION_DDOT":0},{"OBJECT_NAME":"STARLINK-1522","OBJECT_ID":"2020-055A","EPOCH":"2026-03-15T05:52:01.732800","MEAN_MOTION":15.09303435,"ECCENTRICITY":0.00018752,"INCLINATION":53.0625,"RA_OF_ASC_NODE":101.4414,"ARG_OF_PERICENTER":64.4262,"MEAN_ANOMALY":295.6923,"EPHEMERIS_TYPE":0,"CLASSIFICATION_TYPE":"U","NORAD_CAT_ID":46027,"ELEMENT_SET_NO":999,"REV_AT_EPOCH":30972,"BSTAR":0.0011422705,"MEAN_MOTION_DOT":0.00018172,"MEAN_MOTION_DDOT":0},{"OBJECT_NAME":"STARLINK-1523","OBJECT_ID":"2020-055B","EPOCH":"2026-03-15T08:00:01.999872","MEAN_MOTION":15.24705599,"ECCENTRICITY":0.00015779,"INCLINATION":53.1335,"RA_OF_ASC_NODE":100.3562,"ARG_OF_PERICENTER":60.3866,"MEAN_ANOMALY":3.1717,"EPHEMERIS_TYPE":0,"CLASSIFICATION_TYPE":"U","NORAD_CAT_ID":46028,"ELEMENT_SET_NO":999,"REV_AT_EPOCH":579,"BSTAR":0.034635376,"MEAN_MOTION_DOT":0.00938849,"MEAN_MOTION_DDOT":0},{"OBJECT_NAME":"STARLINK-1526","OBJECT_ID":"2020-055C","EPOCH":"2026-03-15T08:00:01.999872","MEAN_MOTION":15.24739725,"ECCENTRICITY":0.00020101,"INCLINATION":53.1335,"RA_OF_ASC_NODE":100.3195,"ARG_OF_PERICENTER":78.5588,"MEAN_ANOMALY":45.3237,"EPHEMERIS_TYPE":0,"CLASSIFICATION_TYPE":"U","NORAD_CAT_ID":46029,"ELEMENT_SET_NO":999,"REV_AT_EPOCH":579,"BSTAR":0.033392919,"MEAN_MOTION_DOT":0.00903301,"MEAN_MOTION_DDOT":0},{"OBJECT_NAME":"STARLINK-1555","OBJECT_ID":"2020-055F","EPOCH":"2026-03-15T08:00:01.999872","MEAN_MOTION":15.24994518,"ECCENTRICITY":0.00021936,"INCLINATION":53.1349,"RA_OF_ASC_NODE":100.4055,"ARG_OF_PERICENTER":80.1516,"MEAN_ANOMALY":75.8485,"EPHEMERIS_TYPE":0,"CLASSIFICATION_TYPE":"U","NORAD_CAT_ID":46032,"ELEMENT_SET_NO":999,"REV_AT_EPOCH":584,"BSTAR":0.03711565,"MEAN_MOTION_DOT":0.01021946,"MEAN_MOTION_DDOT":0},{"OBJECT_NAME":"STARLINK-1556","OBJECT_ID":"2020-055G","EPOCH":"2026-03-15T08:00:01.999872","MEAN_MOTION":15.25869086,"ECCENTRICITY":0.00012977,"INCLINATION":53.1393,"RA_OF_ASC_NODE":100.305,"ARG_OF_PERICENTER":79.5049,"MEAN_ANOMALY":231.5241,"EPHEMERIS_TYPE":0,"CLASSIFICATION_TYPE":"U","NORAD_CAT_ID":46033,"ELEMENT_SET_NO":999,"REV_AT_EPOCH":589,"BSTAR":0.035109093,"MEAN_MOTION_DOT":0.00989629,"MEAN_MOTION_DDOT":0},{"OBJECT_NAME":"STARLINK-1557","OBJECT_ID":"2020-055H","EPOCH":"2026-03-15T08:00:01.999872","MEAN_MOTION":15.26474532,"ECCENTRICITY":0.00012567,"INCLINATION":53.1414,"RA_OF_ASC_NODE":100.2154,"ARG_OF_PERICENTER":73.6561,"MEAN_ANOMALY":266.6671,"EPHEMERIS_TYPE":0,"CLASSIFICATION_TYPE":"U","NORAD_CAT_ID":46034,"ELEMENT_SET_NO":999,"REV_AT_EPOCH":574,"BSTAR":0.033099152,"MEAN_MOTION_DOT":0.00946595,"MEAN_MOTION_DDOT":0},{"OBJECT_NAME":"STARLINK-1558","OBJECT_ID":"2020-055J","EPOCH":"2026-03-15T08:00:01.999872","MEAN_MOTION":15.2608225,"ECCENTRICITY":0.00013602,"INCLINATION":53.1395,"RA_OF_ASC_NODE":100.3972,"ARG_OF_PERICENTER":99.6621,"MEAN_ANOMALY":101.065,"EPHEMERIS_TYPE":0,"CLASSIFICATION_TYPE":"U","NORAD_CAT_ID":46035,"ELEMENT_SET_NO":999,"REV_AT_EPOCH":584,"BSTAR":0.038470048,"MEAN_MOTION_DOT":0.01085047,"MEAN_MOTION_DDOT":0},{"OBJECT_NAME":"STARLINK-1560","OBJECT_ID":"2020-055K","EPOCH":"2026-03-15T08:00:01.999872","MEAN_MOTION":15.2938721,"ECCENTRICITY":0.00019072,"INCLINATION":53.1571,"RA_OF_ASC_NODE":100.2778,"ARG_OF_PERICENTER":73.9503,"MEAN_ANOMALY":272.2304,"EPHEMERIS_TYPE":0,"CLASSIFICATION_TYPE":"U","NORAD_CAT_ID":46036,"ELEMENT_SET_NO":999,"REV_AT_EPOCH":579,"BSTAR":-0.002800137,"MEAN_MOTION_DOT":-0.00080371,"MEAN_MOTION_DDOT":0},{"OBJECT_NAME":"STARLINK-1567","OBJECT_ID":"2020-055M","EPOCH":"2026-03-15T08:00:01.999872","MEAN_MOTION":15.28533561,"ECCENTRICITY":8.187e-5,"INCLINATION":53.088,"RA_OF_ASC_NODE":100.3993,"ARG_OF_PERICENTER":83.1407,"MEAN_ANOMALY":122.8881,"EPHEMERIS_TYPE":0,"CLASSIFICATION_TYPE":"U","NORAD_CAT_ID":46038,"ELEMENT_SET_NO":999,"REV_AT_EPOCH":579,"BSTAR":0.059651644,"MEAN_MOTION_DOT":0.01844734,"MEAN_MOTION_DDOT":0},{"OBJECT_NAME":"STARLINK-1569","OBJECT_ID":"2020-055N","EPOCH":"2026-03-15T08:00:01.999872","MEAN_MOTION":15.24571877,"ECCENTRICITY":0.0002159,"INCLINATION":53.1329,"RA_OF_ASC_NODE":100.4079,"ARG_OF_PERICENTER":84.5357,"MEAN_ANOMALY":89.9738,"EPHEMERIS_TYPE":0,"CLASSIFICATION_TYPE":"U","NORAD_CAT_ID":46039,"ELEMENT_SET_NO":999,"REV_AT_EPOCH":584,"BSTAR":0.036223912,"MEAN_MOTION_DOT":0.00981541,"MEAN_MOTION_DDOT":0},{"OBJECT_NAME":"STARLINK-1582","OBJECT_ID":"2020-055S","EPOCH":"2026-03-15T08:00:01.999872","MEAN_MOTION":15.26916944,"ECCENTRICITY":0.00021217,"INCLINATION":53.1444,"RA_OF_ASC_NODE":100.4564,"ARG_OF_PERICENTER":88.0377,"MEAN_ANOMALY":19.6832,"EPHEMERIS_TYPE":0,"CLASSIFICATION_TYPE":"U","NORAD_CAT_ID":46043,"ELEMENT_SET_NO":999,"REV_AT_EPOCH":590,"BSTAR":0.058183812,"MEAN_MOTION_DOT":0.01730213,"MEAN_MOTION_DDOT":0},{"OBJECT_NAME":"STARLINK-1591","OBJECT_ID":"2020-055U","EPOCH":"2026-03-15T08:00:01.999872","MEAN_MOTION":15.24243216,"ECCENTRICITY":9.221e-5,"INCLINATION":53.1295,"RA_OF_ASC_NODE":100.3597,"ARG_OF_PERICENTER":60.1503,"MEAN_ANOMALY":320.7549,"EPHEMERIS_TYPE":0,"CLASSIFICATION_TYPE":"U","NORAD_CAT_ID":46045,"ELEMENT_SET_NO":999,"REV_AT_EPOCH":584,"BSTAR":0.002823148,"MEAN_MOTION_DOT":0.00070102,"MEAN_MOTION_DDOT":0}]
